{"type": "FeatureCollection", "features": [{"type": "Feature", "geometry": {"type": "LineString", "coordinates": [[77.4894, 13.0262], [77.518, 13.049]]}, "properties": {"id": "synth_0_45", "name": "ANCHEPALYA \u2192 SRSPEENYA", "voltage": "66000", "voltage_kv": 66, "line_class": "MV (33-66kV)", "color": "#3b82f6", "weight": 2, "operator": "BESCOM", "type": "line"}}, {"type": "Feature", "geometry": {"type": "LineString", "coordinates": [[77.4894, 13.0262], [77.517, 13.059]]}, "properties": {"id": "synth_0_50", "name": "ANCHEPALYA \u2192 TOYOTA", "voltage": "66000", "voltage_kv": 66, "line_class": "MV (33-66kV)", "color": "#3b82f6", "weight": 2, "operator": "BESCOM", "type": "line"}}, {"type": "Feature", "geometry": {"type": "LineString", "coordinates": [[77.573, 12.978], [77.571, 12.977]]}, "properties": {"id": "synth_1_40", "name": "ASTATION \u2192 RAILWAYS", "voltage": "66000", "voltage_kv": 66, "line_class": "MV (33-66kV)", "color": "#3b82f6", "weight": 2, "operator": "BESCOM", "type": "line"}}, {"type": "Feature", "geometry": {"type": "LineString", "coordinates": [[77.573, 12.978], [77.571, 12.981]]}, "properties": {"id": "synth_1_23", "name": "ASTATION \u2192 KRCROSS", "voltage": "66000", "voltage_kv": 66, "line_class": "MV (33-66kV)", "color": "#3b82f6", "weight": 2, "operator": "BESCOM", "type": "line"}}, {"type": "Feature", "geometry": {"type": "LineString", "coordinates": [[77.613, 12.8634], [77.6, 12.88]]}, "properties": {"id": "synth_2_37", "name": "BEGUR \u2192 NEELGUNDA", "voltage": "66000", "voltage_kv": 66, "line_class": "MV (33-66kV)", "color": "#3b82f6", "weight": 2, "operator": "BESCOM", "type": "line"}}, {"type": "Feature", "geometry": {"type": "LineString", "coordinates": [[77.613, 12.8634], [77.579, 12.865]]}, "properties": {"id": "synth_2_53", "name": "BEGUR \u2192 YARANDANAHALLI", "voltage": "66000", "voltage_kv": 66, "line_class": "MV (33-66kV)", "color": "#3b82f6", "weight": 2, "operator": "BESCOM", "type": "line"}}, {"type": "Feature", "geometry": {"type": "LineString", "coordinates": [[77.485, 12.95], [77.515, 12.934]]}, "properties": {"id": "synth_3_36", "name": "BENKIKERE \u2192 NAGNATHPURA", "voltage": "66000", "voltage_kv": 66, "line_class": "MV (33-66kV)", "color": "#3b82f6", "weight": 2, "operator": "BESCOM", "type": "line"}}, {"type": "Feature", "geometry": {"type": "LineString", "coordinates": [[77.485, 12.95], [77.51, 12.926]]}, "properties": {"id": "synth_3_25", "name": "BENKIKERE \u2192 KHODAYS", "voltage": "66000", "voltage_kv": 66, "line_class": "MV (33-66kV)", "color": "#3b82f6", "weight": 2, "operator": "BESCOM", "type": "line"}}, {"type": "Feature", "geometry": {"type": "LineString", "coordinates": [[77.387, 12.798], [77.486, 12.892]]}, "properties": {"id": "synth_4_33", "name": "BIDADI \u2192 KUMBALGODU", "voltage": "66000", "voltage_kv": 66, "line_class": "MV (33-66kV)", "color": "#3b82f6", "weight": 2, "operator": "BESCOM", "type": "line"}}, {"type": "Feature", "geometry": {"type": "LineString", "coordinates": [[77.387, 12.798], [77.504, 12.875]]}, "properties": {"id": "synth_4_47", "name": "BIDADI \u2192 T GOLLAHALLI", "voltage": "66000", "voltage_kv": 66, "line_class": "MV (33-66kV)", "color": "#3b82f6", "weight": 2, "operator": "BESCOM", "type": "line"}}, {"type": "Feature", "geometry": {"type": "LineString", "coordinates": [[77.562, 12.96], [77.571, 12.977]]}, "properties": {"id": "synth_5_40", "name": "BRINDAVAN \u2192 RAILWAYS", "voltage": "66000", "voltage_kv": 66, "line_class": "MV (33-66kV)", "color": "#3b82f6", "weight": 2, "operator": "BESCOM", "type": "line"}}, {"type": "Feature", "geometry": {"type": "LineString", "coordinates": [[77.562, 12.96], [77.573, 12.978]]}, "properties": {"id": "synth_5_1", "name": "BRINDAVAN \u2192 ASTATION", "voltage": "66000", "voltage_kv": 66, "line_class": "MV (33-66kV)", "color": "#3b82f6", "weight": 2, "operator": "BESCOM", "type": "line"}}, {"type": "Feature", "geometry": {"type": "LineString", "coordinates": [[77.586, 12.971], [77.583, 12.977]]}, "properties": {"id": "synth_6_39", "name": "CPRI \u2192 NRS", "voltage": "66000", "voltage_kv": 66, "line_class": "MV (33-66kV)", "color": "#3b82f6", "weight": 2, "operator": "BESCOM", "type": "line"}}, {"type": "Feature", "geometry": {"type": "LineString", "coordinates": [[77.586, 12.971], [77.573, 12.978]]}, "properties": {"id": "synth_6_1", "name": "CPRI \u2192 ASTATION", "voltage": "66000", "voltage_kv": 66, "line_class": "MV (33-66kV)", "color": "#3b82f6", "weight": 2, "operator": "BESCOM", "type": "line"}}, {"type": "Feature", "geometry": {"type": "LineString", "coordinates": [[77.337, 13.108], [77.343, 13.157]]}, "properties": {"id": "synth_7_12", "name": "DABASPET \u2192 GUTTUR", "voltage": "66000", "voltage_kv": 66, "line_class": "MV (33-66kV)", "color": "#3b82f6", "weight": 2, "operator": "BESCOM", "type": "line"}}, {"type": "Feature", "geometry": {"type": "LineString", "coordinates": [[77.337, 13.108], [77.369, 12.995]]}, "properties": {"id": "synth_7_28", "name": "DABASPET \u2192 KIADB VN PURA", "voltage": "66000", "voltage_kv": 66, "line_class": "MV (33-66kV)", "color": "#3b82f6", "weight": 2, "operator": "BESCOM", "type": "line"}}, {"type": "Feature", "geometry": {"type": "LineString", "coordinates": [[77.52, 12.903], [77.524, 12.923]]}, "properties": {"id": "synth_8_52", "name": "DBPURA \u2192 VRISHABHAVATHI", "voltage": "66000", "voltage_kv": 66, "line_class": "MV (33-66kV)", "color": "#3b82f6", "weight": 2, "operator": "BESCOM", "type": "line"}}, {"type": "Feature", "geometry": {"type": "LineString", "coordinates": [[77.52, 12.903], [77.51, 12.926]]}, "properties": {"id": "synth_8_25", "name": "DBPURA \u2192 KHODAYS", "voltage": "66000", "voltage_kv": 66, "line_class": "MV (33-66kV)", "color": "#3b82f6", "weight": 2, "operator": "BESCOM", "type": "line"}}, {"type": "Feature", "geometry": {"type": "LineString", "coordinates": [[77.629, 12.977], [77.637, 12.959]]}, "properties": {"id": "synth_9_24", "name": "EAST_DIVISION \u2192 KEONICS CITY", "voltage": "66000", "voltage_kv": 66, "line_class": "MV (33-66kV)", "color": "#3b82f6", "weight": 2, "operator": "BESCOM", "type": "line"}}, {"type": "Feature", "geometry": {"type": "LineString", "coordinates": [[77.629, 12.977], [77.664, 12.958]]}, "properties": {"id": "synth_9_13", "name": "EAST_DIVISION \u2192 HAL", "voltage": "66000", "voltage_kv": 66, "line_class": "MV (33-66kV)", "color": "#3b82f6", "weight": 2, "operator": "BESCOM", "type": "line"}}, {"type": "Feature", "geometry": {"type": "LineString", "coordinates": [[77.725, 12.969], [77.7377, 12.9846]]}, "properties": {"id": "synth_10_20", "name": "EPIP \u2192 ITPL", "voltage": "66000", "voltage_kv": 66, "line_class": "MV (33-66kV)", "color": "#3b82f6", "weight": 2, "operator": "BESCOM", "type": "line"}}, {"type": "Feature", "geometry": {"type": "LineString", "coordinates": [[77.725, 12.969], [77.719, 12.989]]}, "properties": {"id": "synth_10_16", "name": "EPIP \u2192 HOODY", "voltage": "66000", "voltage_kv": 66, "line_class": "MV (33-66kV)", "color": "#3b82f6", "weight": 2, "operator": "BESCOM", "type": "line"}}, {"type": "Feature", "geometry": {"type": "LineString", "coordinates": [[77.664, 12.899], [77.6389, 12.9116]]}, "properties": {"id": "synth_11_18", "name": "EXORA \u2192 HSR LAYOUT", "voltage": "66000", "voltage_kv": 66, "line_class": "MV (33-66kV)", "color": "#3b82f6", "weight": 2, "operator": "BESCOM", "type": "line"}}, {"type": "Feature", "geometry": {"type": "LineString", "coordinates": [[77.664, 12.899], [77.6245, 12.9352]]}, "properties": {"id": "synth_11_31", "name": "EXORA \u2192 KORAMANGALA", "voltage": "66000", "voltage_kv": 66, "line_class": "MV (33-66kV)", "color": "#3b82f6", "weight": 2, "operator": "BESCOM", "type": "line"}}, {"type": "Feature", "geometry": {"type": "LineString", "coordinates": [[77.343, 13.157], [77.337, 13.108]]}, "properties": {"id": "synth_12_7", "name": "GUTTUR \u2192 DABASPET", "voltage": "66000", "voltage_kv": 66, "line_class": "MV (33-66kV)", "color": "#3b82f6", "weight": 2, "operator": "BESCOM", "type": "line"}}, {"type": "Feature", "geometry": {"type": "LineString", "coordinates": [[77.664, 12.958], [77.637, 12.959]]}, "properties": {"id": "synth_13_24", "name": "HAL \u2192 KEONICS CITY", "voltage": "66000", "voltage_kv": 66, "line_class": "MV (33-66kV)", "color": "#3b82f6", "weight": 2, "operator": "BESCOM", "type": "line"}}, {"type": "Feature", "geometry": {"type": "LineString", "coordinates": [[77.664, 12.958], [77.629, 12.977]]}, "properties": {"id": "synth_13_9", "name": "HAL \u2192 EAST_DIVISION", "voltage": "66000", "voltage_kv": 66, "line_class": "MV (33-66kV)", "color": "#3b82f6", "weight": 2, "operator": "BESCOM", "type": "line"}}, {"type": "Feature", "geometry": {"type": "LineString", "coordinates": [[77.608, 13.032], [77.617, 13.0465]]}, "properties": {"id": "synth_14_34", "name": "HBR LAYOUT \u2192 MANYATHA TECH PARK", "voltage": "66000", "voltage_kv": 66, "line_class": "MV (33-66kV)", "color": "#3b82f6", "weight": 2, "operator": "BESCOM", "type": "line"}}, {"type": "Feature", "geometry": {"type": "LineString", "coordinates": [[77.608, 13.032], [77.5919, 13.0382]]}, "properties": {"id": "synth_14_15", "name": "HBR LAYOUT \u2192 HEBBAL", "voltage": "66000", "voltage_kv": 66, "line_class": "MV (33-66kV)", "color": "#3b82f6", "weight": 2, "operator": "BESCOM", "type": "line"}}, {"type": "Feature", "geometry": {"type": "LineString", "coordinates": [[77.5919, 13.0382], [77.608, 13.032]]}, "properties": {"id": "synth_15_14", "name": "HEBBAL \u2192 HBR LAYOUT", "voltage": "66000", "voltage_kv": 66, "line_class": "MV (33-66kV)", "color": "#3b82f6", "weight": 2, "operator": "BESCOM", "type": "line"}}, {"type": "Feature", "geometry": {"type": "LineString", "coordinates": [[77.5919, 13.0382], [77.588, 13.059]]}, "properties": {"id": "synth_15_41", "name": "HEBBAL \u2192 SAHAKARINAGAR", "voltage": "66000", "voltage_kv": 66, "line_class": "MV (33-66kV)", "color": "#3b82f6", "weight": 2, "operator": "BESCOM", "type": "line"}}, {"type": "Feature", "geometry": {"type": "LineString", "coordinates": [[77.719, 12.989], [77.7377, 12.9846]]}, "properties": {"id": "synth_16_20", "name": "HOODY \u2192 ITPL", "voltage": "66000", "voltage_kv": 66, "line_class": "MV (33-66kV)", "color": "#3b82f6", "weight": 2, "operator": "BESCOM", "type": "line"}}, {"type": "Feature", "geometry": {"type": "LineString", "coordinates": [[77.719, 12.989], [77.725, 12.969]]}, "properties": {"id": "synth_16_10", "name": "HOODY \u2192 EPIP", "voltage": "66000", "voltage_kv": 66, "line_class": "MV (33-66kV)", "color": "#3b82f6", "weight": 2, "operator": "BESCOM", "type": "line"}}, {"type": "Feature", "geometry": {"type": "LineString", "coordinates": [[77.798, 13.071], [77.7377, 12.9846]]}, "properties": {"id": "synth_17_20", "name": "HOSKOTE \u2192 ITPL", "voltage": "66000", "voltage_kv": 66, "line_class": "MV (33-66kV)", "color": "#3b82f6", "weight": 2, "operator": "BESCOM", "type": "line"}}, {"type": "Feature", "geometry": {"type": "LineString", "coordinates": [[77.798, 13.071], [77.719, 12.989]]}, "properties": {"id": "synth_17_16", "name": "HOSKOTE \u2192 HOODY", "voltage": "66000", "voltage_kv": 66, "line_class": "MV (33-66kV)", "color": "#3b82f6", "weight": 2, "operator": "BESCOM", "type": "line"}}, {"type": "Feature", "geometry": {"type": "LineString", "coordinates": [[77.6389, 12.9116], [77.6245, 12.9352]]}, "properties": {"id": "synth_18_31", "name": "HSR LAYOUT \u2192 KORAMANGALA", "voltage": "66000", "voltage_kv": 66, "line_class": "MV (33-66kV)", "color": "#3b82f6", "weight": 2, "operator": "BESCOM", "type": "line"}}, {"type": "Feature", "geometry": {"type": "LineString", "coordinates": [[77.6389, 12.9116], [77.664, 12.899]]}, "properties": {"id": "synth_18_11", "name": "HSR LAYOUT \u2192 EXORA", "voltage": "66000", "voltage_kv": 66, "line_class": "MV (33-66kV)", "color": "#3b82f6", "weight": 2, "operator": "BESCOM", "type": "line"}}, {"type": "Feature", "geometry": {"type": "LineString", "coordinates": [[77.568, 13.019], [77.562, 13.012]]}, "properties": {"id": "synth_19_51", "name": "ITI \u2192 VIKAS TECH PARK", "voltage": "66000", "voltage_kv": 66, "line_class": "MV (33-66kV)", "color": "#3b82f6", "weight": 2, "operator": "BESCOM", "type": "line"}}, {"type": "Feature", "geometry": {"type": "LineString", "coordinates": [[77.568, 13.019], [77.5919, 13.0382]]}, "properties": {"id": "synth_19_15", "name": "ITI \u2192 HEBBAL", "voltage": "66000", "voltage_kv": 66, "line_class": "MV (33-66kV)", "color": "#3b82f6", "weight": 2, "operator": "BESCOM", "type": "line"}}, {"type": "Feature", "geometry": {"type": "LineString", "coordinates": [[77.7377, 12.9846], [77.719, 12.989]]}, "properties": {"id": "synth_20_16", "name": "ITPL \u2192 HOODY", "voltage": "66000", "voltage_kv": 66, "line_class": "MV (33-66kV)", "color": "#3b82f6", "weight": 2, "operator": "BESCOM", "type": "line"}}, {"type": "Feature", "geometry": {"type": "LineString", "coordinates": [[77.7377, 12.9846], [77.725, 12.969]]}, "properties": {"id": "synth_20_10", "name": "ITPL \u2192 EPIP", "voltage": "66000", "voltage_kv": 66, "line_class": "MV (33-66kV)", "color": "#3b82f6", "weight": 2, "operator": "BESCOM", "type": "line"}}, {"type": "Feature", "geometry": {"type": "LineString", "coordinates": [[77.557, 13.213], [77.542, 13.168]]}, "properties": {"id": "synth_21_26", "name": "JALIGE_B \u2192 KIADB DB PURA", "voltage": "66000", "voltage_kv": 66, "line_class": "MV (33-66kV)", "color": "#3b82f6", "weight": 2, "operator": "BESCOM", "type": "line"}}, {"type": "Feature", "geometry": {"type": "LineString", "coordinates": [[77.557, 13.213], [77.636, 13.202]]}, "properties": {"id": "synth_21_27", "name": "JALIGE_B \u2192 KIADB H/W PARK", "voltage": "66000", "voltage_kv": 66, "line_class": "MV (33-66kV)", "color": "#3b82f6", "weight": 2, "operator": "BESCOM", "type": "line"}}, {"type": "Feature", "geometry": {"type": "LineString", "coordinates": [[77.6326, 12.7765], [77.613, 12.8634]]}, "properties": {"id": "synth_22_2", "name": "JIGANI \u2192 BEGUR", "voltage": "66000", "voltage_kv": 66, "line_class": "MV (33-66kV)", "color": "#3b82f6", "weight": 2, "operator": "BESCOM", "type": "line"}}, {"type": "Feature", "geometry": {"type": "LineString", "coordinates": [[77.6326, 12.7765], [77.56, 12.847]]}, "properties": {"id": "synth_22_44", "name": "JIGANI \u2192 SOMANAHALLI", "voltage": "66000", "voltage_kv": 66, "line_class": "MV (33-66kV)", "color": "#3b82f6", "weight": 2, "operator": "BESCOM", "type": "line"}}, {"type": "Feature", "geometry": {"type": "LineString", "coordinates": [[77.571, 12.981], [77.573, 12.978]]}, "properties": {"id": "synth_23_1", "name": "KRCROSS \u2192 ASTATION", "voltage": "66000", "voltage_kv": 66, "line_class": "MV (33-66kV)", "color": "#3b82f6", "weight": 2, "operator": "BESCOM", "type": "line"}}, {"type": "Feature", "geometry": {"type": "LineString", "coordinates": [[77.571, 12.981], [77.571, 12.977]]}, "properties": {"id": "synth_23_40", "name": "KRCROSS \u2192 RAILWAYS", "voltage": "66000", "voltage_kv": 66, "line_class": "MV (33-66kV)", "color": "#3b82f6", "weight": 2, "operator": "BESCOM", "type": "line"}}, {"type": "Feature", "geometry": {"type": "LineString", "coordinates": [[77.637, 12.959], [77.629, 12.977]]}, "properties": {"id": "synth_24_9", "name": "KEONICS CITY \u2192 EAST_DIVISION", "voltage": "66000", "voltage_kv": 66, "line_class": "MV (33-66kV)", "color": "#3b82f6", "weight": 2, "operator": "BESCOM", "type": "line"}}, {"type": "Feature", "geometry": {"type": "LineString", "coordinates": [[77.637, 12.959], [77.6245, 12.9352]]}, "properties": {"id": "synth_24_31", "name": "KEONICS CITY \u2192 KORAMANGALA", "voltage": "66000", "voltage_kv": 66, "line_class": "MV (33-66kV)", "color": "#3b82f6", "weight": 2, "operator": "BESCOM", "type": "line"}}, {"type": "Feature", "geometry": {"type": "LineString", "coordinates": [[77.51, 12.926], [77.515, 12.934]]}, "properties": {"id": "synth_25_36", "name": "KHODAYS \u2192 NAGNATHPURA", "voltage": "66000", "voltage_kv": 66, "line_class": "MV (33-66kV)", "color": "#3b82f6", "weight": 2, "operator": "BESCOM", "type": "line"}}, {"type": "Feature", "geometry": {"type": "LineString", "coordinates": [[77.51, 12.926], [77.524, 12.923]]}, "properties": {"id": "synth_25_52", "name": "KHODAYS \u2192 VRISHABHAVATHI", "voltage": "66000", "voltage_kv": 66, "line_class": "MV (33-66kV)", "color": "#3b82f6", "weight": 2, "operator": "BESCOM", "type": "line"}}, {"type": "Feature", "geometry": {"type": "LineString", "coordinates": [[77.542, 13.168], [77.557, 13.213]]}, "properties": {"id": "synth_26_21", "name": "KIADB DB PURA \u2192 JALIGE_B", "voltage": "66000", "voltage_kv": 66, "line_class": "MV (33-66kV)", "color": "#3b82f6", "weight": 2, "operator": "BESCOM", "type": "line"}}, {"type": "Feature", "geometry": {"type": "LineString", "coordinates": [[77.542, 13.168], [77.5963, 13.1007]]}, "properties": {"id": "synth_26_54", "name": "KIADB DB PURA \u2192 YELAHANKA", "voltage": "66000", "voltage_kv": 66, "line_class": "MV (33-66kV)", "color": "#3b82f6", "weight": 2, "operator": "BESCOM", "type": "line"}}, {"type": "Feature", "geometry": {"type": "LineString", "coordinates": [[77.636, 13.202], [77.648, 13.227]]}, "properties": {"id": "synth_27_29", "name": "KIADB H/W PARK \u2192 KIADB_AEROSPACE", "voltage": "66000", "voltage_kv": 66, "line_class": "MV (33-66kV)", "color": "#3b82f6", "weight": 2, "operator": "BESCOM", "type": "line"}}, {"type": "Feature", "geometry": {"type": "LineString", "coordinates": [[77.636, 13.202], [77.557, 13.213]]}, "properties": {"id": "synth_27_21", "name": "KIADB H/W PARK \u2192 JALIGE_B", "voltage": "66000", "voltage_kv": 66, "line_class": "MV (33-66kV)", "color": "#3b82f6", "weight": 2, "operator": "BESCOM", "type": "line"}}, {"type": "Feature", "geometry": {"type": "LineString", "coordinates": [[77.369, 12.995], [77.337, 13.108]]}, "properties": {"id": "synth_28_7", "name": "KIADB VN PURA \u2192 DABASPET", "voltage": "66000", "voltage_kv": 66, "line_class": "MV (33-66kV)", "color": "#3b82f6", "weight": 2, "operator": "BESCOM", "type": "line"}}, {"type": "Feature", "geometry": {"type": "LineString", "coordinates": [[77.369, 12.995], [77.4894, 13.0262]]}, "properties": {"id": "synth_28_0", "name": "KIADB VN PURA \u2192 ANCHEPALYA", "voltage": "66000", "voltage_kv": 66, "line_class": "MV (33-66kV)", "color": "#3b82f6", "weight": 2, "operator": "BESCOM", "type": "line"}}, {"type": "Feature", "geometry": {"type": "LineString", "coordinates": [[77.648, 13.227], [77.636, 13.202]]}, "properties": {"id": "synth_29_27", "name": "KIADB_AEROSPACE \u2192 KIADB H/W PARK", "voltage": "66000", "voltage_kv": 66, "line_class": "MV (33-66kV)", "color": "#3b82f6", "weight": 2, "operator": "BESCOM", "type": "line"}}, {"type": "Feature", "geometry": {"type": "LineString", "coordinates": [[77.648, 13.227], [77.557, 13.213]]}, "properties": {"id": "synth_29_21", "name": "KIADB_AEROSPACE \u2192 JALIGE_B", "voltage": "66000", "voltage_kv": 66, "line_class": "MV (33-66kV)", "color": "#3b82f6", "weight": 2, "operator": "BESCOM", "type": "line"}}, {"type": "Feature", "geometry": {"type": "LineString", "coordinates": [[77.741, 13.287], [77.648, 13.227]]}, "properties": {"id": "synth_30_29", "name": "KIADB_MUDDENAHALLI \u2192 KIADB_AEROSPACE", "voltage": "66000", "voltage_kv": 66, "line_class": "MV (33-66kV)", "color": "#3b82f6", "weight": 2, "operator": "BESCOM", "type": "line"}}, {"type": "Feature", "geometry": {"type": "LineString", "coordinates": [[77.741, 13.287], [77.636, 13.202]]}, "properties": {"id": "synth_30_27", "name": "KIADB_MUDDENAHALLI \u2192 KIADB H/W PARK", "voltage": "66000", "voltage_kv": 66, "line_class": "MV (33-66kV)", "color": "#3b82f6", "weight": 2, "operator": "BESCOM", "type": "line"}}, {"type": "Feature", "geometry": {"type": "LineString", "coordinates": [[77.6245, 12.9352], [77.637, 12.959]]}, "properties": {"id": "synth_31_24", "name": "KORAMANGALA \u2192 KEONICS CITY", "voltage": "66000", "voltage_kv": 66, "line_class": "MV (33-66kV)", "color": "#3b82f6", "weight": 2, "operator": "BESCOM", "type": "line"}}, {"type": "Feature", "geometry": {"type": "LineString", "coordinates": [[77.6245, 12.9352], [77.6389, 12.9116]]}, "properties": {"id": "synth_31_18", "name": "KORAMANGALA \u2192 HSR LAYOUT", "voltage": "66000", "voltage_kv": 66, "line_class": "MV (33-66kV)", "color": "#3b82f6", "weight": 2, "operator": "BESCOM", "type": "line"}}, {"type": "Feature", "geometry": {"type": "LineString", "coordinates": [[77.58, 12.93], [77.5955, 12.938]]}, "properties": {"id": "synth_32_38", "name": "KOTIPURA \u2192 NIMHANS", "voltage": "66000", "voltage_kv": 66, "line_class": "MV (33-66kV)", "color": "#3b82f6", "weight": 2, "operator": "BESCOM", "type": "line"}}, {"type": "Feature", "geometry": {"type": "LineString", "coordinates": [[77.58, 12.93], [77.562, 12.96]]}, "properties": {"id": "synth_32_5", "name": "KOTIPURA \u2192 BRINDAVAN", "voltage": "66000", "voltage_kv": 66, "line_class": "MV (33-66kV)", "color": "#3b82f6", "weight": 2, "operator": "BESCOM", "type": "line"}}, {"type": "Feature", "geometry": {"type": "LineString", "coordinates": [[77.486, 12.892], [77.504, 12.875]]}, "properties": {"id": "synth_33_47", "name": "KUMBALGODU \u2192 T GOLLAHALLI", "voltage": "66000", "voltage_kv": 66, "line_class": "MV (33-66kV)", "color": "#3b82f6", "weight": 2, "operator": "BESCOM", "type": "line"}}, {"type": "Feature", "geometry": {"type": "LineString", "coordinates": [[77.486, 12.892], [77.52, 12.903]]}, "properties": {"id": "synth_33_8", "name": "KUMBALGODU \u2192 DBPURA", "voltage": "66000", "voltage_kv": 66, "line_class": "MV (33-66kV)", "color": "#3b82f6", "weight": 2, "operator": "BESCOM", "type": "line"}}, {"type": "Feature", "geometry": {"type": "LineString", "coordinates": [[77.617, 13.0465], [77.608, 13.032]]}, "properties": {"id": "synth_34_14", "name": "MANYATHA TECH PARK \u2192 HBR LAYOUT", "voltage": "66000", "voltage_kv": 66, "line_class": "MV (33-66kV)", "color": "#3b82f6", "weight": 2, "operator": "BESCOM", "type": "line"}}, {"type": "Feature", "geometry": {"type": "LineString", "coordinates": [[77.617, 13.0465], [77.61, 13.07]]}, "properties": {"id": "synth_34_48", "name": "MANYATHA TECH PARK \u2192 TALLAK", "voltage": "66000", "voltage_kv": 66, "line_class": "MV (33-66kV)", "color": "#3b82f6", "weight": 2, "operator": "BESCOM", "type": "line"}}, {"type": "Feature", "geometry": {"type": "LineString", "coordinates": [[77.518, 12.854], [77.5225, 12.8434]]}, "properties": {"id": "synth_35_49", "name": "METTEHARI \u2192 TATAGUNI", "voltage": "66000", "voltage_kv": 66, "line_class": "MV (33-66kV)", "color": "#3b82f6", "weight": 2, "operator": "BESCOM", "type": "line"}}, {"type": "Feature", "geometry": {"type": "LineString", "coordinates": [[77.518, 12.854], [77.504, 12.875]]}, "properties": {"id": "synth_35_47", "name": "METTEHARI \u2192 T GOLLAHALLI", "voltage": "66000", "voltage_kv": 66, "line_class": "MV (33-66kV)", "color": "#3b82f6", "weight": 2, "operator": "BESCOM", "type": "line"}}, {"type": "Feature", "geometry": {"type": "LineString", "coordinates": [[77.515, 12.934], [77.51, 12.926]]}, "properties": {"id": "synth_36_25", "name": "NAGNATHPURA \u2192 KHODAYS", "voltage": "66000", "voltage_kv": 66, "line_class": "MV (33-66kV)", "color": "#3b82f6", "weight": 2, "operator": "BESCOM", "type": "line"}}, {"type": "Feature", "geometry": {"type": "LineString", "coordinates": [[77.515, 12.934], [77.524, 12.923]]}, "properties": {"id": "synth_36_52", "name": "NAGNATHPURA \u2192 VRISHABHAVATHI", "voltage": "66000", "voltage_kv": 66, "line_class": "MV (33-66kV)", "color": "#3b82f6", "weight": 2, "operator": "BESCOM", "type": "line"}}, {"type": "Feature", "geometry": {"type": "LineString", "coordinates": [[77.6, 12.88], [77.613, 12.8634]]}, "properties": {"id": "synth_37_2", "name": "NEELGUNDA \u2192 BEGUR", "voltage": "66000", "voltage_kv": 66, "line_class": "MV (33-66kV)", "color": "#3b82f6", "weight": 2, "operator": "BESCOM", "type": "line"}}, {"type": "Feature", "geometry": {"type": "LineString", "coordinates": [[77.6, 12.88], [77.579, 12.865]]}, "properties": {"id": "synth_37_53", "name": "NEELGUNDA \u2192 YARANDANAHALLI", "voltage": "66000", "voltage_kv": 66, "line_class": "MV (33-66kV)", "color": "#3b82f6", "weight": 2, "operator": "BESCOM", "type": "line"}}, {"type": "Feature", "geometry": {"type": "LineString", "coordinates": [[77.5955, 12.938], [77.58, 12.93]]}, "properties": {"id": "synth_38_32", "name": "NIMHANS \u2192 KOTIPURA", "voltage": "66000", "voltage_kv": 66, "line_class": "MV (33-66kV)", "color": "#3b82f6", "weight": 2, "operator": "BESCOM", "type": "line"}}, {"type": "Feature", "geometry": {"type": "LineString", "coordinates": [[77.5955, 12.938], [77.6245, 12.9352]]}, "properties": {"id": "synth_38_31", "name": "NIMHANS \u2192 KORAMANGALA", "voltage": "66000", "voltage_kv": 66, "line_class": "MV (33-66kV)", "color": "#3b82f6", "weight": 2, "operator": "BESCOM", "type": "line"}}, {"type": "Feature", "geometry": {"type": "LineString", "coordinates": [[77.583, 12.977], [77.586, 12.971]]}, "properties": {"id": "synth_39_6", "name": "NRS \u2192 CPRI", "voltage": "66000", "voltage_kv": 66, "line_class": "MV (33-66kV)", "color": "#3b82f6", "weight": 2, "operator": "BESCOM", "type": "line"}}, {"type": "Feature", "geometry": {"type": "LineString", "coordinates": [[77.583, 12.977], [77.573, 12.978]]}, "properties": {"id": "synth_39_1", "name": "NRS \u2192 ASTATION", "voltage": "66000", "voltage_kv": 66, "line_class": "MV (33-66kV)", "color": "#3b82f6", "weight": 2, "operator": "BESCOM", "type": "line"}}, {"type": "Feature", "geometry": {"type": "LineString", "coordinates": [[77.571, 12.977], [77.573, 12.978]]}, "properties": {"id": "synth_40_1", "name": "RAILWAYS \u2192 ASTATION", "voltage": "66000", "voltage_kv": 66, "line_class": "MV (33-66kV)", "color": "#3b82f6", "weight": 2, "operator": "BESCOM", "type": "line"}}, {"type": "Feature", "geometry": {"type": "LineString", "coordinates": [[77.571, 12.977], [77.571, 12.981]]}, "properties": {"id": "synth_40_23", "name": "RAILWAYS \u2192 KRCROSS", "voltage": "66000", "voltage_kv": 66, "line_class": "MV (33-66kV)", "color": "#3b82f6", "weight": 2, "operator": "BESCOM", "type": "line"}}, {"type": "Feature", "geometry": {"type": "LineString", "coordinates": [[77.588, 13.059], [77.5919, 13.0382]]}, "properties": {"id": "synth_41_15", "name": "SAHAKARINAGAR \u2192 HEBBAL", "voltage": "66000", "voltage_kv": 66, "line_class": "MV (33-66kV)", "color": "#3b82f6", "weight": 2, "operator": "BESCOM", "type": "line"}}, {"type": "Feature", "geometry": {"type": "LineString", "coordinates": [[77.588, 13.059], [77.61, 13.07]]}, "properties": {"id": "synth_41_48", "name": "SAHAKARINAGAR \u2192 TALLAK", "voltage": "66000", "voltage_kv": 66, "line_class": "MV (33-66kV)", "color": "#3b82f6", "weight": 2, "operator": "BESCOM", "type": "line"}}, {"type": "Feature", "geometry": {"type": "LineString", "coordinates": [[77.7861, 12.8601], [77.745, 12.794]]}, "properties": {"id": "synth_42_43", "name": "SARJAPURA \u2192 SHOBHA DREAM ACRES", "voltage": "66000", "voltage_kv": 66, "line_class": "MV (33-66kV)", "color": "#3b82f6", "weight": 2, "operator": "BESCOM", "type": "line"}}, {"type": "Feature", "geometry": {"type": "LineString", "coordinates": [[77.7861, 12.8601], [77.725, 12.969]]}, "properties": {"id": "synth_42_10", "name": "SARJAPURA \u2192 EPIP", "voltage": "66000", "voltage_kv": 66, "line_class": "MV (33-66kV)", "color": "#3b82f6", "weight": 2, "operator": "BESCOM", "type": "line"}}, {"type": "Feature", "geometry": {"type": "LineString", "coordinates": [[77.745, 12.794], [77.7861, 12.8601]]}, "properties": {"id": "synth_43_42", "name": "SHOBHA DREAM ACRES \u2192 SARJAPURA", "voltage": "66000", "voltage_kv": 66, "line_class": "MV (33-66kV)", "color": "#3b82f6", "weight": 2, "operator": "BESCOM", "type": "line"}}, {"type": "Feature", "geometry": {"type": "LineString", "coordinates": [[77.745, 12.794], [77.6326, 12.7765]]}, "properties": {"id": "synth_43_22", "name": "SHOBHA DREAM ACRES \u2192 JIGANI", "voltage": "66000", "voltage_kv": 66, "line_class": "MV (33-66kV)", "color": "#3b82f6", "weight": 2, "operator": "BESCOM", "type": "line"}}, {"type": "Feature", "geometry": {"type": "LineString", "coordinates": [[77.56, 12.847], [77.579, 12.865]]}, "properties": {"id": "synth_44_53", "name": "SOMANAHALLI \u2192 YARANDANAHALLI", "voltage": "66000", "voltage_kv": 66, "line_class": "MV (33-66kV)", "color": "#3b82f6", "weight": 2, "operator": "BESCOM", "type": "line"}}, {"type": "Feature", "geometry": {"type": "LineString", "coordinates": [[77.56, 12.847], [77.5225, 12.8434]]}, "properties": {"id": "synth_44_49", "name": "SOMANAHALLI \u2192 TATAGUNI", "voltage": "66000", "voltage_kv": 66, "line_class": "MV (33-66kV)", "color": "#3b82f6", "weight": 2, "operator": "BESCOM", "type": "line"}}, {"type": "Feature", "geometry": {"type": "LineString", "coordinates": [[77.518, 13.049], [77.517, 13.059]]}, "properties": {"id": "synth_45_50", "name": "SRSPEENYA \u2192 TOYOTA", "voltage": "66000", "voltage_kv": 66, "line_class": "MV (33-66kV)", "color": "#3b82f6", "weight": 2, "operator": "BESCOM", "type": "line"}}, {"type": "Feature", "geometry": {"type": "LineString", "coordinates": [[77.518, 13.049], [77.4894, 13.0262]]}, "properties": {"id": "synth_45_0", "name": "SRSPEENYA \u2192 ANCHEPALYA", "voltage": "66000", "voltage_kv": 66, "line_class": "MV (33-66kV)", "color": "#3b82f6", "weight": 2, "operator": "BESCOM", "type": "line"}}, {"type": "Feature", "geometry": {"type": "LineString", "coordinates": [[77.547, 12.887], [77.52, 12.903]]}, "properties": {"id": "synth_46_8", "name": "SUBRAMANYAPURA \u2192 DBPURA", "voltage": "66000", "voltage_kv": 66, "line_class": "MV (33-66kV)", "color": "#3b82f6", "weight": 2, "operator": "BESCOM", "type": "line"}}, {"type": "Feature", "geometry": {"type": "LineString", "coordinates": [[77.547, 12.887], [77.579, 12.865]]}, "properties": {"id": "synth_46_53", "name": "SUBRAMANYAPURA \u2192 YARANDANAHALLI", "voltage": "66000", "voltage_kv": 66, "line_class": "MV (33-66kV)", "color": "#3b82f6", "weight": 2, "operator": "BESCOM", "type": "line"}}, {"type": "Feature", "geometry": {"type": "LineString", "coordinates": [[77.504, 12.875], [77.486, 12.892]]}, "properties": {"id": "synth_47_33", "name": "T GOLLAHALLI \u2192 KUMBALGODU", "voltage": "66000", "voltage_kv": 66, "line_class": "MV (33-66kV)", "color": "#3b82f6", "weight": 2, "operator": "BESCOM", "type": "line"}}, {"type": "Feature", "geometry": {"type": "LineString", "coordinates": [[77.504, 12.875], [77.518, 12.854]]}, "properties": {"id": "synth_47_35", "name": "T GOLLAHALLI \u2192 METTEHARI", "voltage": "66000", "voltage_kv": 66, "line_class": "MV (33-66kV)", "color": "#3b82f6", "weight": 2, "operator": "BESCOM", "type": "line"}}, {"type": "Feature", "geometry": {"type": "LineString", "coordinates": [[77.61, 13.07], [77.617, 13.0465]]}, "properties": {"id": "synth_48_34", "name": "TALLAK \u2192 MANYATHA TECH PARK", "voltage": "66000", "voltage_kv": 66, "line_class": "MV (33-66kV)", "color": "#3b82f6", "weight": 2, "operator": "BESCOM", "type": "line"}}, {"type": "Feature", "geometry": {"type": "LineString", "coordinates": [[77.61, 13.07], [77.588, 13.059]]}, "properties": {"id": "synth_48_41", "name": "TALLAK \u2192 SAHAKARINAGAR", "voltage": "66000", "voltage_kv": 66, "line_class": "MV (33-66kV)", "color": "#3b82f6", "weight": 2, "operator": "BESCOM", "type": "line"}}, {"type": "Feature", "geometry": {"type": "LineString", "coordinates": [[77.5225, 12.8434], [77.518, 12.854]]}, "properties": {"id": "synth_49_35", "name": "TATAGUNI \u2192 METTEHARI", "voltage": "66000", "voltage_kv": 66, "line_class": "MV (33-66kV)", "color": "#3b82f6", "weight": 2, "operator": "BESCOM", "type": "line"}}, {"type": "Feature", "geometry": {"type": "LineString", "coordinates": [[77.5225, 12.8434], [77.504, 12.875]]}, "properties": {"id": "synth_49_47", "name": "TATAGUNI \u2192 T GOLLAHALLI", "voltage": "66000", "voltage_kv": 66, "line_class": "MV (33-66kV)", "color": "#3b82f6", "weight": 2, "operator": "BESCOM", "type": "line"}}, {"type": "Feature", "geometry": {"type": "LineString", "coordinates": [[77.517, 13.059], [77.518, 13.049]]}, "properties": {"id": "synth_50_45", "name": "TOYOTA \u2192 SRSPEENYA", "voltage": "66000", "voltage_kv": 66, "line_class": "MV (33-66kV)", "color": "#3b82f6", "weight": 2, "operator": "BESCOM", "type": "line"}}, {"type": "Feature", "geometry": {"type": "LineString", "coordinates": [[77.517, 13.059], [77.4894, 13.0262]]}, "properties": {"id": "synth_50_0", "name": "TOYOTA \u2192 ANCHEPALYA", "voltage": "66000", "voltage_kv": 66, "line_class": "MV (33-66kV)", "color": "#3b82f6", "weight": 2, "operator": "BESCOM", "type": "line"}}, {"type": "Feature", "geometry": {"type": "LineString", "coordinates": [[77.562, 13.012], [77.568, 13.019]]}, "properties": {"id": "synth_51_19", "name": "VIKAS TECH PARK \u2192 ITI", "voltage": "66000", "voltage_kv": 66, "line_class": "MV (33-66kV)", "color": "#3b82f6", "weight": 2, "operator": "BESCOM", "type": "line"}}, {"type": "Feature", "geometry": {"type": "LineString", "coordinates": [[77.562, 13.012], [77.571, 12.981]]}, "properties": {"id": "synth_51_23", "name": "VIKAS TECH PARK \u2192 KRCROSS", "voltage": "66000", "voltage_kv": 66, "line_class": "MV (33-66kV)", "color": "#3b82f6", "weight": 2, "operator": "BESCOM", "type": "line"}}, {"type": "Feature", "geometry": {"type": "LineString", "coordinates": [[77.524, 12.923], [77.515, 12.934]]}, "properties": {"id": "synth_52_36", "name": "VRISHABHAVATHI \u2192 NAGNATHPURA", "voltage": "66000", "voltage_kv": 66, "line_class": "MV (33-66kV)", "color": "#3b82f6", "weight": 2, "operator": "BESCOM", "type": "line"}}, {"type": "Feature", "geometry": {"type": "LineString", "coordinates": [[77.524, 12.923], [77.51, 12.926]]}, "properties": {"id": "synth_52_25", "name": "VRISHABHAVATHI \u2192 KHODAYS", "voltage": "66000", "voltage_kv": 66, "line_class": "MV (33-66kV)", "color": "#3b82f6", "weight": 2, "operator": "BESCOM", "type": "line"}}, {"type": "Feature", "geometry": {"type": "LineString", "coordinates": [[77.579, 12.865], [77.6, 12.88]]}, "properties": {"id": "synth_53_37", "name": "YARANDANAHALLI \u2192 NEELGUNDA", "voltage": "66000", "voltage_kv": 66, "line_class": "MV (33-66kV)", "color": "#3b82f6", "weight": 2, "operator": "BESCOM", "type": "line"}}, {"type": "Feature", "geometry": {"type": "LineString", "coordinates": [[77.579, 12.865], [77.56, 12.847]]}, "properties": {"id": "synth_53_44", "name": "YARANDANAHALLI \u2192 SOMANAHALLI", "voltage": "66000", "voltage_kv": 66, "line_class": "MV (33-66kV)", "color": "#3b82f6", "weight": 2, "operator": "BESCOM", "type": "line"}}, {"type": "Feature", "geometry": {"type": "LineString", "coordinates": [[77.5963, 13.1007], [77.61, 13.07]]}, "properties": {"id": "synth_54_48", "name": "YELAHANKA \u2192 TALLAK", "voltage": "66000", "voltage_kv": 66, "line_class": "MV (33-66kV)", "color": "#3b82f6", "weight": 2, "operator": "BESCOM", "type": "line"}}, {"type": "Feature", "geometry": {"type": "LineString", "coordinates": [[77.5963, 13.1007], [77.588, 13.059]]}, "properties": {"id": "synth_54_41", "name": "YELAHANKA \u2192 SAHAKARINAGAR", "voltage": "66000", "voltage_kv": 66, "line_class": "MV (33-66kV)", "color": "#3b82f6", "weight": 2, "operator": "BESCOM", "type": "line"}}]}